#dP2019  6 21  0  0  0.00000000      96 __u+U ITR00 FIT  IAC
## 2058 432000.00000000   900.00000000 58655 0.0000000000000
+   97   C01C02C03C05C06C07C08C09C10C11C12C13C14C16E01E02E03
+        E04E05E07E08E09E11E12E13E14E15E18E19E21E24E25E26E27
+        E30E31E33E36G01G02G03G04G05G06G07G08G09G10G11G12G13
+        G14G15G16G17G18G19G20G21G22G23G24G25G26G27G28G29G30
+        G31G32J01J02J03J07R01R02R03R04R05R07R08R09R10R11R13
+        R14R15R16R17R18R19R20R21R22R23R24R26  0  0  0  0  0
++        13 12 13 12  9  8  9  8  9  8  8  8  8  9  5  5  6
++         5  6  6  5  5  5  5  5  5  5  5  5  5  5  5  5  5
++         6  5  5  5  4  4  4  4  3  4  4  4  3  3  4  4  3
++         4  3  3  4  4  4  3  3  4  4  4  4  3  3  4  3  3
++         3  4  9 10 11 15  6  6  5  5  5  5  5  5  5  6  6
++         5  5  6  5  5  6  6  5  5  5  6  8  0  0  0  0  0
%c M  cc GPS ccc cccc cccc cccc cccc ccccc ccccc ccccc ccccc
%c cc cc ccc ccc cccc cccc cccc cccc ccccc ccccc ccccc ccccc
%f  0.0000000  0.000000000  0.00000000000  0.000000000000000
%f  0.0000000  0.000000000  0.00000000000  0.000000000000000
%i    0    0    0    0      0      0      0      0         0
%i    0    0    0    0      0      0      0      0         0
/*                                                          
/*   RSA / INFORMATION & ANALYSIS CENTER (IAC) OF MCC       
/*   ULTRA-RAPID DETERMINATION                              
/* PCV:IGS14_2056 OL/AL:FES2004  NONE     YN ORB:CoN CLK:CoN
*  2019 06 21  3  0  0.00000000
PC01 -32318.599130  27041.960982   1039.081282    739.252198
PC02   4334.036990  41930.879589   -976.085463     83.689029
PC03 -14798.157315  39447.491730    273.062577    581.310626
PC05  21861.204951  36002.520358   -815.988045   -282.182577
PC06  -7735.505604  26888.482387 -31098.504425    607.984516
PC07 -22651.006026  24731.413665  25414.567120    130.964879
PC08 -17476.354332  38365.810637   3766.668539    166.176895
PC09   6225.880963  35474.913235 -21390.409875    858.072439
PC10  -4733.807154  26670.100433  32384.564090   -863.452340
PC11 -15256.357988   2291.005649  23299.502398    266.035738
PC12 -11597.513856 -24199.701594   7562.529143    785.658950
PC13  -8293.036329  40329.493436  -9610.270869   -790.874457
PC14 -27062.571234  -6895.449774   -179.619578    557.141456
PC16  -4396.424980  28770.799836 -30405.445428   -911.875512
PE01  -7129.654728 -14678.164153 -24696.802356   -630.618406
PE02   7197.199239  14647.471877  24692.654574     65.762295
PE03  15734.480429  22414.757433 -11243.163758   -179.670648
PE04 -25392.854710 -13505.603193  -6983.172219   -307.167550
PE05  -3255.902759  18262.418716 -23056.965348   -473.266803
PE07  20244.414027  -3458.514060  21334.747881   -211.318501
PE08  25502.413956  13244.328061   7140.260512   6336.449913
PE09 -20096.964274   3546.255100 -21421.498363   6402.470326
PE11 -15790.554949  13723.636835  20923.164999   5672.330735
PE12 -14831.859096  -9212.904862  23904.347956   6336.351163
PE13  15689.822736 -13684.449773 -21042.795320    388.830254
PE14 -13718.204416 -23425.814228    730.620542   -613.282405
PE15  14910.408866   8704.984818 -24038.740938    906.060781
PE18  21883.700690  14505.625335 -15156.679171   -709.602329
PE19 -14187.420778 -22527.106826  12953.144502     -5.649881
PE21  14307.983927 -18669.551202 -17978.866108   -540.144447
PE24 -27212.032254  11623.185894    950.762481   6017.685147
PE25 -14354.567592  18660.569299  17939.489908   1766.738261
PE26   7518.709796 -28069.364377  -5636.736071   4429.616371
PE27  27223.985633 -11608.441899   -666.355734    444.983646
PE30  24265.243764   2236.945309  16793.328225   4773.489453
PE31 -24128.410408  -2242.665151 -16986.600506   -465.811929
PE33  -5394.438455 -26063.903338  12964.425719   -469.920808
PE36  -7278.005123  28114.477394   5707.282644    697.147960
PG01 -14015.130980  22094.901956   3199.588219    -46.484495
PG02  17006.303356  -5190.270974 -19078.668824   -242.197178
PG03 -15431.461128  12830.202185 -17396.331221    184.780270
PG04  10436.003680  23950.865207  -4784.047317    168.578800
PG05  26582.735730  -2173.493100    291.802221      0.446427
PG06  11380.356620  10052.058152 -21746.150023    172.069661
PG07  -4368.733107  23871.656980  10470.392577    -48.641069
PG08 -12432.263805   8440.538503  21929.358837   -148.223068
PG09   5704.148938  23313.348463 -11402.396984    387.367833
PG10 -15872.250543 -11706.033896  17948.489374      9.529854
PG11  -9608.041664  21781.487959  11505.728744   -579.741865
PG12  17855.496855 -10714.274841 -16602.425025    231.222390
PG13  16598.179630   1855.018800  20554.908771    -58.125204
PG14 -17672.996554 -16177.903644 -11335.346853    -75.136498
PG15  11862.067609 -10459.129694  21062.702189   -305.784597
PG16 -26777.015571   -573.407814    708.401206    -49.767978
PG17  15038.707210  21575.215700  -3631.554320     75.241983
PG18 -16523.899083  17048.886994  11276.161536     63.629609
PG19  17127.695798  17010.887449 -11307.218586   -304.001274
PG20  -6328.217412 -14802.055954  21038.443705    525.512174
PG21  -1459.707329 -22666.282443  14692.458421   -169.273794
PG22 -21367.936225  10931.725438 -11053.680106   -720.077993
PG23  -5572.366722  16848.730917 -19296.174059   -180.836813
PG24  14672.065599 -20897.152685   6502.053357    -67.722669
PG25   4151.893862 -15046.807416 -21670.656985   -767.412009
PG26 -24379.495703  -5021.325500  -9534.999254    232.103379
PG27 -18092.160359  -4564.149244  18907.953201   -163.460989
PG28  14208.109551  13144.912293  18748.420995    767.296516
PG29  -1148.207065 -22138.194512 -14659.858592    171.202364
PG30   4096.539765  19135.280717  17897.455542   -127.895218
PG31 -12745.540060  -8380.994318 -21728.799862     29.663800
PG32 -16974.668215 -19953.192868  -4690.740927    -34.906933
PJ01 -30112.608586  15852.983683 -20205.288068   -284.624474
PJ02 -29283.914055  30118.664515   7859.709038     -0.453214
PJ03 -24981.199129  24337.395191  28770.366187      1.107539
PJ07 -25373.762973  33662.020621    -15.362038     -0.021210
PR01 -14216.799710 -14630.899830  15309.463205     45.650386
PR02 -23490.905051  -9019.189022  -4300.461084    374.541526
PR03 -16931.684128   1957.425891 -18949.055040     -2.939499
PR04     97.765478  11935.829671 -22518.625718    310.899905
PR05  16034.108812  14597.979475 -13402.607485     30.445554
PR07  16475.950593  -2371.334393  19355.278916    -22.115734
PR08    707.596613 -11674.674973  22727.251455     17.139943
PR09  19652.507654  -4158.312906  15779.863784     76.135668
PR10  21643.407923 -13456.506485   1854.684675     52.665948
PR11  11424.670111 -16832.130258 -15408.949970    -70.118981
PR13 -18475.887128   2986.217340 -17343.657360    -25.092718
PR14 -21448.037983  13682.114435  -1705.955852     40.150752
PR15 -12168.164780  16806.959215  14854.490806    102.668452
PR16   4503.048309  10290.594737  22885.459086      8.334538
PR17  -9035.124520  10624.857598  21369.068640    237.402012
PR18  -2610.125809  23502.451906   9497.407593     -2.527455
PR19   4600.282858  23939.413061  -7516.082149    -37.456935
PR20  10121.388139   9132.757478 -21546.011830   -381.891172
PR21   8803.359757 -11233.806878 -21139.988775    -55.187327
PR22   1403.238250 -24601.887972  -6838.632526    -24.866784
PR23  -7097.727566 -21089.491861  12462.597375    235.722201
PR24 -10479.984604  -7067.032676  22129.174712   -181.755944
PR26   9982.680423  11901.462906 -20232.541615     -4.967663
EOF
